[{"OBJECT_NAME":"STARLINK-5562","OBJECT_ID":"2023-058V","EPOCH":"2026-03-09T22:09:34.119648","MEAN_MOTION":15.01261223,"ECCENTRICITY":0.00016906,"INCLINATION":97.604,"RA_OF_ASC_NODE":70.411,"ARG_OF_PERICENTER":53.5061,"MEAN_ANOMALY":306.6319,"EPHEMERIS_TYPE":0,"CLASSIFICATION_TYPE":"U","NORAD_CAT_ID":56336,"ELEMENT_SET_NO":999,"REV_AT_EPOCH":15816,"BSTAR":-2.509918e-6,"MEAN_MOTION_DOT":-9.1e-7,"MEAN_MOTION_DDOT":0},{"OBJECT_NAME":"QPS-SAR-10 (WADATSUMI-I)","OBJECT_ID":"2025-104A","EPOCH":"2026-03-09T22:18:19.817856","MEAN_MOTION":15.00816738,"ECCENTRICITY":0.00107055,"INCLINATION":42.0035,"RA_OF_ASC_NODE":106.051,"ARG_OF_PERICENTER":46.9104,"MEAN_ANOMALY":313.2617,"EPHEMERIS_TYPE":0,"CLASSIFICATION_TYPE":"U","NORAD_CAT_ID":64055,"ELEMENT_SET_NO":999,"REV_AT_EPOCH":4451,"BSTAR":0.00049051731,"MEAN_MOTION_DOT":6.161e-5,"MEAN_MOTION_DDOT":0}]
